[{"OBJECT_NAME":"STARLINK-3548","OBJECT_ID":"2022-022N","EPOCH":"2026-03-09T23:24:03.438720","MEAN_MOTION":15.08838389,"ECCENTRICITY":0.00014593,"INCLINATION":53.2191,"RA_OF_ASC_NODE":7.7626,"ARG_OF_PERICENTER":118.0377,"MEAN_ANOMALY":242.0763,"EPHEMERIS_TYPE":0,"CLASSIFICATION_TYPE":"U","NORAD_CAT_ID":51864,"ELEMENT_SET_NO":999,"REV_AT_EPOCH":22320,"BSTAR":3.347674e-6,"MEAN_MOTION_DOT":-2.35e-6,"MEAN_MOTION_DDOT":0},{"OBJECT_NAME":"CZ-6A DEB","OBJECT_ID":"2022-151CD","EPOCH":"2026-03-09T04:34:52.178880","MEAN_MOTION":15.04926808,"ECCENTRICITY":0.00436133,"INCLINATION":98.6267,"RA_OF_ASC_NODE":153.8749,"ARG_OF_PERICENTER":159.2339,"MEAN_ANOMALY":201.0669,"EPHEMERIS_TYPE":0,"CLASSIFICATION_TYPE":"U","NORAD_CAT_ID":54334,"ELEMENT_SET_NO":999,"REV_AT_EPOCH":17669,"BSTAR":0.0057373504,"MEAN_MOTION_DOT":0.00083812,"MEAN_MOTION_DDOT":0}]
